#dP2023  4  2  0  0  0.00000000      96 __u+U ITR00 FIT  IAC
## 2256      0.00000000   900.00000000 60036 0.0000000000000
+  120   C06C07C08C09C10C11C12C13C14C16C19C20C21C22C23C24C25
+        C26C27C28C29C30C32C33C34C35C36C37C38C39C40C41C42C43
+        C44C45C46E01E02E03E04E05E07E08E09E10E11E12E13E14E15
+        E18E19E21E24E25E26E27E30E31E33E34E36G01G02G03G04G05
+        G06G07G08G09G10G11G12G13G14G15G16G17G18G19G20G21G22
+        G23G24G25G26G27G28G29G30G31G32J02J03J04R01R02R03R04
+        R05R07R08R09R11R12R13R14R15R16R17R18R19R20R21R22R24
+        R25  0  0  0  0  0  0  0  0  0  0  0  0  0  0  0  0
++         9  7  9  8  7  7  8  9  7  9  6  7  6  4  7  6  6
++         7  7  7  6  6  6  8  6  8  6  7  9  9  7  7  7  7
++         8  6  7  6  4  5  7  6  6  5  7  5  6  4  6  6  6
++         5  6  5  5  5  6  5  5  7  6  6  5  6  5  7  5  6
++         6  5  5  6  5  6  5  5  6  5  6  6  6  6  6  5  6
++         6  6  6  5  6  7  6  5  5  6  9  7  7  6  6  6  7
++         6  5  5  7  7  5  7  5  6  8  5  5  7  7  7  7  7
++         5  0  0  0  0  0  0  0  0  0  0  0  0  0  0  0  0
%c M  cc GPS ccc cccc cccc cccc cccc ccccc ccccc ccccc ccccc
%c cc cc ccc ccc cccc cccc cccc cccc ccccc ccccc ccccc ccccc
%f  0.0000000  0.000000000  0.00000000000  0.000000000000000
%f  0.0000000  0.000000000  0.00000000000  0.000000000000000
%i    0    0    0    0      0      0      0      0         0
%i    0    0    0    0      0      0      0      0         0
/* INFORMATION & ANALYSIS CENTER (IAC)      ULTRA-RAPID DATA
/* S/V CLOCKS ARE ALIGNED TO GNSS TIME                      
/* G:C1WC2W R:C1PC2P E:C1XC5X C:C2IC6I J:C1CC2S             
/* PCV:IGS20_2247 OL/AL:FES2004  NONE     YN ORB:CoN CLK:CoN
*  2023 04 02 10 30  0.00000000
PC06 -11837.912361  22946.035335 -33352.923359   -197.180851
PC07 -15651.303600  38689.744537   5323.066695   -110.179297
PC08    834.353836  33652.881606  25504.648436    511.137708
PC09  -1382.917711  24280.142977 -34018.269405    813.169398
PC10  -8872.561767  39129.594513  12376.435606    -23.459233
PC11   4250.471131 -15382.550752 -22831.018185    739.825554
PC12  22321.416683 -10462.481100 -13044.894817    545.273792
PC13   5550.553770  36755.035643  20305.279307    243.584945
PC14   5962.877329 -26216.040867   7619.007851     70.048731
PC16 -14881.927479  21598.196212 -32849.695020    121.348662
PC19   1388.014493  23040.185284 -15633.556563   -898.611318
PC20 -11378.290160  25460.696186    -10.752944    647.725838
PC21  18289.824883 -12673.871921 -16835.691783   -909.083755
PC22  14018.747241   7177.181850 -23030.435924   -555.765168
PC23 -20292.376497 -16773.066355  -9249.847133   -898.113791
PC24   5870.748069 -17564.099728  20852.985363   -220.427135
PC25 -11703.401120 -24219.534285   7379.248910     98.796622
PC26  17715.990246  -2126.241831  21447.585686   -100.516982
PC27 -26716.575672   6098.658919   5297.811569    119.612593
PC28 -25040.118044  -5452.126456 -11048.731897     87.906094
PC29   8122.723868  14639.945452  22316.290941    101.696142
PC30 -13798.205236  15122.029330  18967.410593      0.612561
PC32 -18211.856867  12683.711497  16928.981417   -586.864169
PC33  -1490.078883 -23117.297590  15586.556366   -871.867065
PC34  12424.963518 -15447.043405 -19644.284329    140.003474
PC35  24705.319885   5202.758567  11829.225774    653.503028
PC36  10618.303237  24528.851639  -8014.572933   -526.175117
PC37 -18331.219951    423.503213 -21022.195687   -794.339647
PC38  -6529.847465  29064.784078  29931.499238     69.062660
PC39 -20642.941096  20710.959363 -30416.087873     -2.392206
PC40 -22302.487189  35444.879110   3649.632545    -19.214220
PC41 -13765.218948  -7880.384981  23018.902277   -799.299514
PC42  12060.248023 -25151.903501  -1194.371575   -756.683513
PC43  -7208.155787 -15002.903702 -22414.022477     14.736150
PC44  26494.409914  -7030.472485  -5143.334850     63.322217
PC45  20333.337263  16502.287796   9670.179073    -79.910082
PC46  -4361.127298  18699.337637 -20268.454098    -44.130485
PE01  -7288.362293  25472.642315 -13211.010361     -8.431581
PE02   6993.609341 -25737.957069  12810.122240     29.947592
PE03  16071.846978 -21551.331122  12403.405229   -665.201124
PE04   2929.611862  17900.286431 -23379.453932    -91.713736
PE05  26072.599748 -12588.933427  -6154.956727    -80.642045
PE07 -20563.376824  -3783.273871  20959.602089    -34.521068
PE08  -2646.738085 -17906.883193  23428.609876    -60.897112
PE09  20396.336302   3770.678064 -21114.527899   -890.591417
PE10  21695.545978  17429.502417  10071.555572   -523.522340
PE11  26783.740190  12569.100531   -324.107506   1465.844048
PE12  13584.807659  19293.637476  17852.291123   -482.465981
PE13 -26590.239026 -13013.702018   -519.357533    -18.211526
PE14  24239.747217   -185.468501  13446.653907    185.644832
PE15 -13343.256607 -19235.596874 -18118.135726    -11.714130
PE18 -17266.375886 -10837.522748 -20930.118556   -212.667792
PE19 -18281.259968  20942.172269 -10160.003220  -2862.407098
PE21 -15479.832087   9223.351874 -23490.665835   -521.035084
PE24  15340.558604  14481.072639  20754.121088    -21.864908
PE25  15564.175294  -8839.369312  23572.763957   -602.509167
PE26 -23718.610133   1427.909692  17659.086086     63.338494
PE27 -15573.519637 -13571.873448 -21198.934248    -15.138396
PE30  -6040.946624 -28367.060800  -5889.564035    -60.132725
PE31   6494.162498  28154.564144   6443.413929   -520.206473
PE33  -7706.761842  14046.182599  24892.736105   -447.392954
PE34   7498.839092 -14154.576856 -24896.740474    -38.095411
PE36  24092.924550   -756.785029 -17166.261346    -35.305713
PG01 -22098.521079 -14830.235861  -3069.395149    196.943138
PG02  23962.882238  11135.924373    667.928449   -609.677648
PG03 -12502.016293 -14918.974954  18001.754480   -338.098822
PG04 -18100.865567  -4871.085171  18871.988119      7.121992
PG05   5513.781511  25391.850982  -5355.130930   -121.832744
PG06 -10893.658372  10442.067239  21932.190967    585.100227
PG07 -24206.664657  -5339.344212  -9735.315851    210.290130
PG08  -7478.105221 -13341.781949 -21769.944127   -115.845337
PG09 -23305.802543   5210.268718  11599.749158   -188.401773
PG10  11329.770963 -16150.043085 -17454.091087    -31.105276
PG11   3585.772808  17883.858413  19328.952755   -149.294226
PG12  10600.227818  17731.965434  16462.522646   -358.965051
PG13  -1324.518724  16319.134823 -21047.015499    499.717683
PG14 -13461.443120  13188.421242 -18654.462933     13.090243
PG15   9682.015874  12813.251562 -21604.872562     26.991974
PG16   -574.444998 -26140.993374  -3217.642089   -511.635536
PG17 -22712.583851  13753.169908   2276.962020    708.612710
PG18  22689.524971   2144.921080 -13760.845536   -206.283060
PG19 -17644.396558  16369.159086  10677.437380    298.210961
PG20    989.758713  26068.633623   5569.203165    441.360013
PG21 -18688.043357 -16075.998751 -10351.836272    154.308572
PG22  14181.810753 -17912.997402  13846.832643    456.713612
PG23  14696.346656  -3542.709125 -21822.080760     14.205114
PG24  20775.885376  15235.406519  -7650.636032   -135.967117
PG25  14929.880146   6661.994077  20668.962620    432.492552
PG26   5455.909731 -23646.379588  10269.812129    241.923100
PG27   4409.496498 -18082.976727 -19027.665574     67.742451
PG28  12615.359654 -10099.169093  21049.332774     57.320938
PG29  22229.229677   -337.720320  14540.739735   -593.710916
PG30 -18258.280226   5432.401009 -18507.466725   -524.279277
PG31   6581.958179 -13795.774609  21539.875590   -213.043197
PG32  20484.674794 -16243.486024   4211.991356   -440.525613
PJ02 -21004.545244  29178.726818 -17486.295230     -1.383835
PJ03 -29799.137315  22972.384859  24095.683337      1.690112
PJ04 -30805.944313  27784.596546  13898.532551     94.153707
PR01  13147.086278  -1006.615591 -21831.083646     25.907225
PR02  16981.693551 -16508.105060  -9342.839243    -23.022352
PR03  10424.657038 -21814.397313   8097.584350     75.288497
PR04  -1416.172321 -14819.269316  20745.325835    181.741832
PR05 -12695.377382    100.962157  22145.340873    110.315484
PR07 -10079.605159  21765.638635  -8701.618405     52.977396
PR08   1650.195841  14765.167818 -20678.191010    -70.167631
PR09  -9231.868840   6741.998540 -22784.891185    112.490682
PR11  11310.740899  22854.816995     92.979870    -28.764179
PR12  14775.266282  11511.532195  17345.147263     26.126388
PR13   9951.514249  -4768.087104  22978.844300    -33.558421
PR14  -1805.359892 -20447.766191  15161.489625     24.481536
PR15 -11571.030023 -22699.596579  -1255.071944     90.048068
PR16 -14794.694764 -11781.448118 -17128.855865     13.065746
PR17   5589.012098  -9924.875142 -22821.172718    617.601577
PR18 -12522.050456 -10136.538965 -19785.170095     74.509839
PR19 -23404.809106  -6441.685749  -7844.825765   -227.550476
PR20 -21999.093048   2853.414242  12642.365972    -90.411524
PR21  -3709.082322  10108.310669  23120.358955   -384.930874
PR22  12892.351713  10810.122587  19189.892633     77.533617
PR24  21526.319031  -4118.748636 -13042.216546    158.668909
PR25  -6288.614657   9916.688581  22646.376912     59.472322
EOF
